NORAD_CAT_ID,OBJECT_NAME,OBJECT_TYPE,EPOCH,MEAN_MOTION,ECCENTRICITY,INCLINATION,RA_OF_ASC_NODE,ARG_OF_PERICENTER,MEAN_ANOMALY,BSTAR,MEAN_MOTION_DOT,MEAN_MOTION_DDOT,TLE_LINE0,TLE_LINE1,TLE_LINE2,SEMIMAJOR_AXIS,PERIOD,APOGEE,PERIGEE,DECAYED
52294.0,STARLINK-3777,PAYLOAD,2022-07-31 22:00:00,15.08827252,0.0001231999999999,53.2154,250.3283,79.2762,47.7076,0.0016202,0.00025582,0.0,0 STARLINK-3777,1 52294U 22041AK  22212.91667824  .00025582  00000-0  16202-2 0  9998,2 52294  53.2154 250.3283 0001232  79.2762  47.7076 15.08827252 16949,6917.919,95.438,540.637,538.932,0.0
52294.0,STARLINK-3777,PAYLOAD,2022-08-01 14:00:01,15.08829093,0.0001359,53.2153,247.337,67.6613,82.5189,0.0022416999999999,0.00035558,0.0,0 STARLINK-3777,1 52294U 22041AK  22213.58334491  .00035558  00000-0  22417-2 0  9992,2 52294  53.2153 247.3370 0001359  67.6613  82.5189 15.08829093 17046,6917.9140000000025,95.438,540.719,538.839,0.0
52294.0,STARLINK-3777,PAYLOAD,2022-08-01 22:00:00,15.08838436,0.0001305,53.2156,245.8388,76.4626,85.3219,0.00036492,5.524e-05,0.0,0 STARLINK-3777,1 52294U 22041AK  22213.91667824  .00005524  00000-0  36492-3 0  9997,2 52294  53.2156 245.8388 0001305  76.4626  85.3219 15.08838436  1302,6917.885,95.438,540.653,538.847,0.0
52294.0,STARLINK-3777,PAYLOAD,2022-08-02 06:00:02,15.08845608,0.0001478,53.2158,244.3431,75.0761,98.3673,-0.0026208,-0.00041763,0.0,0 STARLINK-3777,1 52294U 22041AK  22214.25002315 -.00041763  00000-0 -26208-2 0  9993,2 52294  53.2158 244.3431 0001478  75.0761  98.3673 15.08845608 17149,6917.863,95.437,540.751,538.706,0.0
52294.0,STARLINK-3777,PAYLOAD,2022-08-02 14:00:01,15.08812157,0.0001521999999999,53.2158,242.8475,67.3911,117.5742,0.001746,0.00027588,0.0,0 STARLINK-3777,1 52294U 22041AK  22214.58334491  .00027588  00000-0  17460-2 0  9999,2 52294  53.2158 242.8475 0001522  67.3911 117.5742 15.08812157  1306,6917.965,95.439,540.883,538.778,0.0
52294.0,STARLINK-3777,PAYLOAD,2022-08-03 14:00:01,15.08824113,0.0001561,53.2164,238.3582,66.4809,153.2209,0.0010475,0.00016415,0.0,0 STARLINK-3777,1 52294U 22041AK  22215.58334491  .00016415  00000-0  10475-2 0  9996,2 52294  53.2164 238.3582 0001561  66.4809 153.2209 15.08824113  1301,6917.929,95.439,540.874,538.714,0.0
52294.0,STARLINK-3777,PAYLOAD,2022-08-03 22:00:01,15.08811692,0.0001467,53.2167,236.86,74.7753,156.5819,0.002466,0.00039146,0.0,0 STARLINK-3777,1 52294U 22041AK  22215.91668981  .00039146  00000-0  24660-2 0  9994,2 52294  53.2167 236.8600 0001467  74.7753 156.5819 15.08811692 17390,6917.967,95.439,540.847,538.817,0.0
52294.0,STARLINK-3777,PAYLOAD,2022-08-04 14:00:01,15.08836041,0.0001564,53.2167,233.86900000000003,66.3067,188.1546,0.00026196,3.883e-05,0.0,0 STARLINK-3777,1 52294U 22041AK  22216.58334491  .00003883  00000-0  26196-3 0  9990,2 52294  53.2167 233.8690 0001564  66.3067 188.1546 15.08836041  1306,6917.892,95.438,540.839,538.6759999999998,0.0
52294.0,STARLINK-3777,PAYLOAD,2022-08-04 22:00:00,15.08815654,0.000147,53.217,232.371,75.2845,190.7778,0.0026476,0.00042072,0.0,0 STARLINK-3777,1 52294U 22041AK  22216.91667824  .00042072  00000-0  26476-2 0  9999,2 52294  53.2170 232.3710 0001470  75.2845 190.7778 15.08815654  1309,6917.955,95.439,540.837,538.803,0.0
52294.0,STARLINK-3777,PAYLOAD,2022-08-05 14:00:01,15.08845868,0.0001541,53.2167,229.3798,66.7736,222.5295,-0.00047181,-7.79e-05,0.0,0 STARLINK-3777,1 52294U 22041AK  22217.58335648 -.00007790  00000-0 -47181-3 0  9996,2 52294  53.2167 229.3798 0001541  66.7736 222.5295 15.08845868 17642,6917.861999999999,95.437,540.793,538.661,0.0
52294.0,STARLINK-3777,PAYLOAD,2022-08-05 22:00:00,15.08819053,0.0001463,53.2168,227.882,76.5164,224.3318,0.0027851,0.0004428999999999,0.0,0 STARLINK-3777,1 52294U 22041AK  22217.91667824  .00044290  00000-0  27851-2 0  9992,2 52294  53.2168 227.8820 0001463  76.5164 224.3318 15.08819053  1308,6917.944,95.439,540.822,538.797,0.0
52294.0,STARLINK-3777,PAYLOAD,2022-08-06 10:58:48,15.08838318,0.0001511,53.2171,225.4549,72.3623,287.7534,3.7074e-05,3.02e-06,0.0,0 STARLINK-3777,1 52294U 22041AK  22218.45750370  .00000302  00000-0  37074-4 0  9997,2 52294  53.2171 225.4549 0001511  72.3623 287.7534 15.08838318 16553,6917.886,95.438,540.7959999999998,538.705,0.0
52294.0,STARLINK-3777,PAYLOAD,2022-08-06 22:00:00,15.08823013,0.0001479,53.2161,223.3931,77.94,257.7084,0.0028166,0.00044803,0.0,0 STARLINK-3777,1 52294U 22041AK  22218.91667824  .00044803  00000-0  28166-2 0  9993,2 52294  53.2161 223.3931 0001479  77.9400 257.7084 15.08823013 17847,6917.932,95.439,540.82,538.774,0.0
52294.0,STARLINK-3777,PAYLOAD,2022-08-07 14:00:01,15.08859252,0.0001546,53.2155,220.4018,68.4011,290.4419,-0.0014068,-0.00022619,0.0,0 STARLINK-3777,1 52294U 22041AK  22219.58334491 -.00022619  00000-0 -14068-2 0  9997,2 52294  53.2155 220.4018 0001546  68.4011 290.4419 15.08859252 17943,6917.821999999999,95.436,540.756,538.617,0.0
52294.0,STARLINK-3777,PAYLOAD,2022-08-07 22:00:00,15.08841341,0.0001468,53.2154,218.904,77.6447,292.814,8.904799999999999e-05,1.13e-05,0.0,0 STARLINK-3777,1 52294U 22041AK  22219.91667824  .00001130  00000-0  89048-4 0  9998,2 52294  53.2154 218.9040 0001468  77.6447 292.8140 15.08841341  1307,6917.876,95.437,540.757,538.726,0.0
52294.0,STARLINK-3777,PAYLOAD,2022-08-08 14:00:01,15.08844447,0.000148,53.215,215.9126,66.9269,326.7767,-0.0013892,-0.00022332,0.0,0 STARLINK-3777,1 52294U 22041AK  22220.58335648 -.00022332  00000-0 -13892-2 0  9990,2 52294  53.2150 215.9126 0001480  66.9269 326.7767 15.08844447  1304,6917.8669999999975,95.437,540.756,538.7080000000002,0.0
52294.0,STARLINK-3777,PAYLOAD,2022-08-08 22:00:00,15.08817345,0.000146,53.215,214.4148,76.3892,328.8485,0.0027609,0.00043898,0.0,0 STARLINK-3777,1 52294U 22041AK  22220.91667824  .00043898  00000-0  27609-2 0  9990,2 52294  53.2150 214.4148 0001460  76.3892 328.8485 15.08817345  1304,6917.95,95.439,540.825,538.805,0.0
52294.0,STARLINK-3777,PAYLOAD,2022-08-09 06:00:00,15.08847058,0.0001579,53.215,212.9201,69.1605,347.6652,-0.00095406,-0.00015443,0.0,0 STARLINK-3777,1 52294U 22041AK  22221.25001157 -.00015443  00000-0 -95406-3 0  9997,2 52294  53.2150 212.9201 0001579  69.1605 347.6652 15.08847058 18206,6917.859,95.437,540.816,538.631,0.0
52294.0,STARLINK-3777,PAYLOAD,2022-08-09 14:00:01,15.08866995,0.000151,53.215,211.4233,65.7665,2.6471,-0.0034408,-0.00054673,0.0,0 STARLINK-3777,1 52294U 22041AK  22221.58334491 -.00054673  00000-0 -34408-2 0  9995,2 52294  53.2150 211.4233 0001510  65.7665   2.6471 15.08866995  1309,6917.7980000000025,95.436,540.707,538.618,0.0
52294.0,STARLINK-3777,PAYLOAD,2022-08-09 22:00:00,15.08812732,0.0001429,53.2152,209.9255,74.1874,5.8391,0.0018455,0.00029183,0.0,0 STARLINK-3777,1 52294U 22041AK  22221.91667824  .00029183  00000-0  18455-2 0  9991,2 52294  53.2152 209.9255 0001429  74.1874   5.8391 15.08812732  1308,6917.964,95.439,540.817,538.84,0.0
52294.0,STARLINK-3777,PAYLOAD,2022-08-10 14:00:01,15.08845354,0.0001508,53.2154,206.9339,64.8936,38.2821,-0.0017169,-0.00027513,0.0,0 STARLINK-3777,1 52294U 22041AK  22222.58334491 -.00027513  00000-0 -17169-2 0  9994,2 52294  53.2154 206.9339 0001508  64.8936  38.2821 15.08845354  1307,6917.864000000001,95.437,540.7719999999998,538.686,0.0
52294.0,STARLINK-3777,PAYLOAD,2022-08-10 16:00:00,15.08842166,0.0001465,53.2156,206.5593,67.8801,128.194,-0.0014781,-0.00023736,0.0,0 STARLINK-3777,1 52294U 22041AK  22222.66667824 -.00023736  00000-0 -14781-2 0  9992,2 52294  53.2156 206.5593 0001465  67.8801 128.1940 15.08842166 18412,6917.874,95.437,540.752,538.725,0.0
52294.0,STARLINK-3777,PAYLOAD,2022-08-10 22:00:00,15.0882383,0.0001493,53.2158,205.4362,73.3957,41.3717,0.0019486,0.00030846,0.0,0 STARLINK-3777,1 52294U 22041AK  22222.91667824  .00030846  00000-0  19486-2 0  9995,2 52294  53.2158 205.4362 0001493  73.3957  41.3717 15.08823830  1306,6917.93,95.439,540.828,538.762,0.0
52294.0,STARLINK-3777,PAYLOAD,2022-08-11 06:00:02,15.08840317,0.0001610999999999,53.2159,203.9416,65.8576,60.5644,-0.00040073,-6.659999999999999e-05,0.0,0 STARLINK-3777,1 52294U 22041AK  22223.25002315 -.00006660  00000-0 -40073-3 0  9997,2 52294  53.2159 203.9416 0001611  65.8576  60.5644 15.08840317 18506,6917.879,95.438,540.859,538.63,0.0
52294.0,STARLINK-3777,PAYLOAD,2022-08-11 14:00:01,15.08859085,0.000155,53.2161,202.4446,65.8148,72.1324,-0.0018613,-0.00029804,0.0,0 STARLINK-3777,1 52294U 22041AK  22223.58334491 -.00029804  00000-0 -18613-2 0  9995,2 52294  53.2161 202.4446 0001550  65.8148  72.1324 15.08859085  1309,6917.821999999999,95.436,540.759,538.615,0.0
52294.0,STARLINK-3777,PAYLOAD,2022-08-12 06:00:00,15.08831683,0.0001521999999999,53.2167,199.4525,64.4419,96.7233,-0.00041625,-6.905e-05,0.0,0 STARLINK-3777,1 52294U 22041AK  22224.25001157 -.00006905  00000-0 -41625-3 0  9997,2 52294  53.2167 199.4525 0001522  64.4419  96.7233 15.08831683 18654,6917.906,95.438,540.8240000000002,538.7180000000002,0.0
52294.0,STARLINK-3777,PAYLOAD,2022-08-12 14:00:01,15.08851346,0.0001446,53.2167,197.9553,65.9912,106.7542,-0.0018050999999999,-0.0002891,0.0,0 STARLINK-3777,1 52294U 22041AK  22224.58334491 -.00028910  00000-0 -18051-2 0  9999,2 52294  53.2167 197.9553 0001446  65.9912 106.7542 15.08851346  1304,6917.846,95.437,540.711,538.71,0.0
52294.0,STARLINK-3777,PAYLOAD,2022-08-12 22:00:01,15.08835753,0.0001413,53.2172,196.4581,74.444,109.9559,0.0013714,0.00021603,0.0,0 STARLINK-3777,1 52294U 22041AK  22224.91668981  .00021603  00000-0  13714-2 0  9991,2 52294  53.2172 196.4581 0001413  74.4440 109.9559 15.08835753  1307,6917.893,95.438,540.736,538.781,0.0
52294.0,STARLINK-3777,PAYLOAD,2022-08-13 14:00:01,15.08840487,0.0001325,53.217,193.4662,65.8843,141.6433,-0.002555,-0.00040721,0.0,0 STARLINK-3777,1 52294U 22041AK  22225.58334491 -.00040721  00000-0 -25550-2 0  9996,2 52294  53.2170 193.4662 0001325  65.8843 141.6433 15.08840487  1309,6917.879,95.438,540.661,538.827,0.0
